[{"OBJECT_NAME":"STARLINK-5969","OBJECT_ID":"2023-042H","EPOCH":"2026-03-08T23:59:54.136896","MEAN_MOTION":15.02533107,"ECCENTRICITY":0.00017063,"INCLINATION":43.0051,"RA_OF_ASC_NODE":60.1124,"ARG_OF_PERICENTER":263.6651,"MEAN_ANOMALY":96.3997,"EPHEMERIS_TYPE":0,"CLASSIFICATION_TYPE":"U","NORAD_CAT_ID":55993,"ELEMENT_SET_NO":999,"REV_AT_EPOCH":16280,"BSTAR":3.2521717e-5,"MEAN_MOTION_DOT":2.36e-6,"MEAN_MOTION_DDOT":0},{"OBJECT_NAME":"NOAA 17 DEB","OBJECT_ID":"2002-032BW","EPOCH":"2026-03-08T22:40:23.580768","MEAN_MOTION":15.05196658,"ECCENTRICITY":0.00149213,"INCLINATION":98.7181,"RA_OF_ASC_NODE":121.0481,"ARG_OF_PERICENTER":217.4424,"MEAN_ANOMALY":142.5761,"EPHEMERIS_TYPE":0,"CLASSIFICATION_TYPE":"U","NORAD_CAT_ID":48737,"ELEMENT_SET_NO":999,"REV_AT_EPOCH":26108,"BSTAR":0.0055556624,"MEAN_MOTION_DOT":0.00080221,"MEAN_MOTION_DDOT":0}]
